STARLINK-4101           
1 53142U 22083L   22301.91668981 -.00008974  00000+0 -54628-3 0  9993
2 53142  53.2168 285.8148 0002405  40.6007  69.1016 15.08848250  1304
STARLINK-4102           
1 53143U 22083M   22302.25001157  .00007625  00000+0  49675-3 0  9994
2 53143  53.2177 284.3059 0002508  36.4104 164.7726 15.08831908 16549
STARLINK-4100           
1 53144U 22083N   22302.25001157 -.00006654  00000+0 -40011-3 0  9993
2 53144  53.2184 284.3125 0002822  28.0327 113.2128 15.08855575 16546
STARLINK-4106           
1 53145U 22083P   22302.25001157 -.00022692  00000+0 -14115-2 0  9999
2 53145  53.2168 284.2998 0002285  36.3342 204.9020 15.08855547 16546
STARLINK-4099           
1 53146U 22083Q   22301.91668981 -.00008017  00000+0 -48599-3 0  9995
2 53146  53.2177 285.8014 0002070  41.0045 108.7003 15.08849542  1306
STARLINK-4094           
1 53147U 22083R   22302.33334491  .00017474  00000+0  11137-2 0  9991
2 53147  53.2168 283.9250 0002458  32.8696 321.2951 15.08824605 16569
STARLINK-4066           
1 53148U 22083S   22301.91668981 -.00003064  00000+0 -17443-3 0  9998
2 53148  53.2172 285.7966 0002439  31.7144 178.0198 15.08841058  1302
STARLINK-4021           
1 53149U 22083T   22302.25001157 -.00019814  00000+0 -12299-2 0  9996
2 53149  53.2175 274.2988 0002009  35.0696 181.1962 15.08849006 16687
STARLINK-4038           
1 53150U 22083U   22301.91668981  .00041656  00000+0  26212-2 0  9991
2 53150  53.2148 275.8007 0002284  32.2572 312.4719 15.08822406  1302
STARLINK-4040           
1 53151U 22083V   22301.91668981 -.00007115  00000+0 -42926-3 0  9997
2 53151  53.2148 275.7991 0002114  42.6377   2.1057 15.08849118  1301
STARLINK-4045           
1 53152U 22083W   22302.41667824  .00020452  00000+0  12996-2 0  9999
2 53152  53.2136 273.5574 0002336  37.1177 164.9575 15.08832695 16709
STARLINK-4098           
1 53153U 22083X   22302.25001157  .00019389  00000+0  12333-2 0  9995
2 53153  53.2149 274.3052 0002086  47.5163  28.7658 15.08828950 16681
STARLINK-4077           
1 53154U 22083Y   22301.91668981  .00028291  00000+0  17890-2 0  9997
2 53154  53.2152 275.8003 0001849  52.5262 332.1865 15.08830327  1306
STARLINK-4088           
1 53155U 22083Z   22301.91668981  .00007038  00000+0  45983-3 0  9999
2 53155  53.2160 275.7980 0001617  54.3280  50.3820 15.08843564  1309
STARLINK-4087           
1 53156U 22083AA  22301.91668981 -.00010019  00000+0 -61205-3 0  9990
2 53156  53.2159 275.7977 0001766  52.5501  46.9752 15.08851761  1308
STARLINK-4093           
1 53157U 22083AB  22302.25001157  .00014205  00000+0  90897-3 0  9993
2 53157  53.2173 274.2960 0001914  51.4667 104.8200 15.08833863 16689
STARLINK-4054           
1 53158U 22083AC  22302.33334491  .00057588  00000+0  36107-2 0  9997
2 53158  53.2151 273.9312 0001536  57.4414 131.7286 15.08803085 16696
STARLINK-4111           
1 53159U 22083AD  22302.33334491  .00012230  00000+0  78520-3 0  9999
2 53159  53.2177 273.9219 0003058  28.8429 260.3218 15.08836667 16696
STARLINK-4096           
1 53160U 22083AE  22301.91668981  .00003339  00000+0  22784-3 0  9999
2 53160  53.2153 275.7988 0001556  59.1439  65.5719 15.08834387  1304
STARLINK-4055           
1 53161U 22083AF  22301.91668981  .00040474  00000+0  25477-2 0  9992
2 53161  53.2194 275.7983 0001800  49.9828 194.7460 15.08823962  1301
STARLINK-4114           
1 53162U 22083AG  22302.33334491  .00055441  00000+0  34767-2 0  9998
2 53162  53.2167 273.9207 0001663  59.0747 210.0748 15.08814822 16694
STARLINK-4104           
1 53163U 22083AH  22302.33334491  .00059429  00000+0  37233-2 0  9990
2 53163  53.2199 273.9308 0002097  37.1936 346.7722 15.08815256 16704
STARLINK-4116           
1 53164U 22083AJ  22302.33334491  .00032959  00000+0  20808-2 0  9990
2 53164  53.2177 273.9306 0001813  54.6134 274.5058 15.08812941 16694
STARLINK-4090           
1 53165U 22083AK  22302.33334491  .00059710  00000+0  37407-2 0  9998
2 53165  53.2202 273.9332 0002230  41.5920   7.5741 15.08815238 16702
STARLINK-4110           
1 53166U 22083AL  22301.91668981  .00039982  00000+0  25171-2 0  9990
2 53166  53.2196 275.7995 0001814  52.9752 211.7305 15.08824488  1308
STARLINK-3683           
1 53167U 22083AM  22301.91668981 -.01158942  00000+0 -64555-1 0  9990
2 53167  53.2173 260.8656 0001888  29.0148 131.8244 15.16106805  1307
STARLINK-4105           
1 53168U 22083AN  22302.33334491  .00020184  00000+0  12830-2 0  9997
2 53168  53.2203 273.9331 0002251  32.8690 356.3076 15.08829703 16703
STARLINK-4117           
1 53169U 22083AP  22302.33334491 -.01067310  00000+0 -63490-1 0  9990
2 53169  53.2174 258.9703 0001676  51.8234 136.8399 15.13563907 16900
STARLINK-4095           
1 53170U 22083AQ  22302.33334491  .00063949  00000+0  40031-2 0  9990
2 53170  53.2146 268.9363 0001929  39.5896 171.8771 15.08810518 16766
STARLINK-4052           
1 53171U 22083AR  22301.91668981  .00045931  00000+0  32970-3 0  9993
2 53171  53.2118 255.4648 0007630 285.0997   1.5240 15.73179340  1305
STARLINK-4299           
1 53172U 22083AS  22302.33334491  .00038605  00000+0  24319-2 0  9994
2 53172  53.2147 268.9331 0002088  47.1218 184.3479 15.08818056 16763
STARLINK-4300           
1 53173U 22083AT  22301.91668981 -.01062977  00000+0 -12599-1 0  9990
2 53173  53.2165 255.5959 0001251  67.1260 134.6266 15.63045535  1303
STARLINK-4205           
1 53174U 22083AU  22302.33334491  .00025474  00000+0  16142-2 0  9991
2 53174  53.2184 283.9308 0001927  43.1179 331.0343 15.08808970 16563
STARLINK-4292           
1 53175U 22083AV  22301.91668981 -.00001069  00000+0 -49075-4 0  9998
2 53175  53.2191 285.8003 0002108  37.5056 252.2201 15.08840318  1303
STARLINK-4294           
1 53176U 22083AW  22301.91668981 -.01075000  00000+0 -59118-1 0  9992
2 53176  53.2176 260.8693 0001800  46.4164 131.0210 15.16341480  1301
STARLINK-4298           
1 53177U 22083AX  22301.91668981 -.01063912  00000+0 -12604-1 0  9991
2 53177  53.2177 255.6057 0001247  92.7576 110.4020 15.63059942  1306
STARLINK-4280           
1 53178U 22083AY  22302.33334491  .00036244  00000+0  22855-2 0  9990
2 53178  53.2144 273.9328 0002597  27.1499  42.0320 15.08809482 16692
STARLINK-4276           
1 53179U 22083AZ  22301.91668981  .00010396  00000+0  78344-4 0  9994
2 53179  53.2124 255.4670 0008214 280.5990   8.4191 15.73192999  1303
STARLINK-4258           
1 53180U 22083BA  22301.91668981  .00041151  00000+0  29591-3 0  9998
2 53180  53.2124 255.4747 0007936 284.0762   0.1673 15.73185210  1308
STARLINK-4273           
1 53181U 22083BB  22302.33334491  .00107811  00000+0  76454-3 0  9998
2 53181  53.2117 253.4138 0007702 288.9037 198.3131 15.73110561 16988
STARLINK-4278           
1 53182U 22083BC  22301.91668981 -.01073220  00000+0 -12718-1 0  9996
2 53182  53.2166 255.6115 0001232  80.1295 123.7290 15.63073955  1304
STARLINK-4268           
1 53183U 22083BD  22301.91668981 -.00055453  00000+0 -39180-3 0  9998
2 53183  53.2123 255.4688 0008528 276.1661  11.1415 15.73227341  1300
STARLINK-4257           
1 53184U 22083BE  22301.91668981 -.00086226  00000+0 -61404-3 0  9995
2 53184  53.2150 255.4614 0008077 274.7102  19.6094 15.73229051  1309
STARLINK-4391           
1 53189U 22084A   22302.24432355  .00002096  00000+0  16768-3 0  9996
2 53189  97.6573   1.6248 0002032  63.0259 297.1172 15.01273729 15549
STARLINK-4332           
1 53190U 22084B   22301.74096460  .00003735  00000+0  29499-3 0  9991
2 53190  97.6541   1.1076 0001157 126.2204 233.9127 15.01287060 15753
STARLINK-4369           
1 53191U 22084C   22302.17210321  .00000661  00000+0  55993-4 0  9998
2 53191  97.6527   1.5386 0002445  82.9725 277.1777 15.01279839 15524
STARLINK-4375           
1 53192U 22084D   22301.77034725  .00002321  00000+0  18512-3 0  9996
2 53192  97.6509   1.1424 0002442 107.1574 252.9918 15.01280589 15750
STARLINK-4351           
1 53193U 22084E   22301.70924686  .00000131  00000+0  14770-4 0  9994
2 53193  97.6549   1.0936 0001985  68.6610 291.4826 15.01271304 16094
STARLINK-4382           
1 53194U 22084F   22301.77405187  .00004947  00000+0  38926-3 0  9999
2 53194  97.6555   1.1529 0001885  61.5562 298.5851 15.01280202 15089
STARLINK-4404           
1 53195U 22084G   22302.18644451  .00001353  00000+0  11216-3 0  9996
2 53195  97.6575   1.6642 0001992  77.4197 282.7250 15.00468410 15538
STARLINK-4407           
1 53196U 22084H   22302.10385309  .00001219  00000+0  99455-4 0  9996
2 53196  97.6536   1.4712 0001792  81.8647 278.2780 15.01264505 15515
STARLINK-4403           
1 53197U 22084J   22301.69814110  .00003714  00000+0  29343-3 0  9997
2 53197  97.6537   1.0663 0001924  95.1195 265.0249 15.01280993 15075
STARLINK-4385           
1 53198U 22084K   22301.90180527  .00006439  00000+0  50510-3 0  9997
2 53198  97.6534   1.2687 0001872 101.2123 258.9312 15.01283191 15483
STARLINK-4395           
1 53199U 22084L   22301.76293915  .00000450  00000+0  39627-4 0  9992
2 53199  97.6545   1.1301 0001875 109.0210 251.1218 15.01271238 15089
STARLINK-4417           
1 53200U 22084M   22302.23321326  .00002775  00000+0  22039-3 0  9996
2 53200  97.6556   1.5921 0002025  79.8066 280.3386 15.01282924 15531
STARLINK-4405           
1 53201U 22084N   22301.75923282  .00001289  00000+0  10487-3 0  9995
2 53201  97.6533   1.1253 0001903 105.8108 254.3326 15.01278681 15082
STARLINK-4411           
1 53202U 22084P   22301.73789994  .00002104  00000+0  17186-3 0  9994
2 53202  97.6535   1.4744 0001122  52.4579 307.6747 15.00463649 15106
STARLINK-4409           
1 53203U 22084Q   22301.75553841 -.00000048  00000+0  83679-6 0  9996
2 53203  97.6545   1.1203 0002486 129.6202 230.5242 15.01262538 15085
STARLINK-4410           
1 53204U 22084R   22301.76108917  .00000833  00000+0  69459-4 0  9997
2 53204  97.6551   1.1250 0002028 109.0889 251.0554 15.01270525 15742
